ONEWEB-0033             
1 45142U 20008M   25137.44463166  .00000061  00000+0  13888-3 0  9995
2 45142  87.8800 115.1972 0001981  91.0587 269.0767 13.10377603256386
ONEWEB-0035             
1 45143U 20008N   25137.39899853  .00000438  00000+0  12195-2 0  9993
2 45143  87.8798 115.2053 0002008  90.4492 269.6865 13.10369041256105
ONEWEB-0036             
1 45144U 20008P   25137.46540364  .00000722  00000+0  20327-2 0  9994
2 45144  87.8796 115.1357 0002150  82.2058 277.9314 13.10372990256541
ONEWEB-0038             
1 45145U 20008Q   25137.40468009  .00000191  00000+0  50381-3 0  9998
2 45145  87.8820  99.9403 0001483  57.9361 302.1911 13.11418110258457
ONEWEB-0039             
1 45146U 20008R   25137.44797056  .00000227  00000+0  61400-3 0  9994
2 45146  87.8801 115.1615 0001866  68.4258 291.7068 13.10376390256333
ONEWEB-0040             
1 45147U 20008S   25137.44131619 -.00000124  00000+0 -39012-3 0  9994
2 45147  87.8808 115.1860 0001963  83.5992 276.5358 13.10376575256039
ONEWEB-0043             
1 45149U 20008U   25137.44297894 -.00000014  00000+0 -77611-4 0  9990
2 45149  87.8804 115.1742 0002154  72.7631 287.3732 13.10376649256352
ONEWEB-0044             
1 45150U 20008V   25137.39487549  .00000545  00000+0  15252-2 0  9992
2 45150  87.8793 115.1763 0002035  78.4598 281.6758 13.10372807256646
